start=new Date('2021-11-27T00:00:00.000Z').valueOf();
sats=[{"MEAN_ANOMALY":"270.9458","GP_ID":"190560021","MEAN_MOTION_DDOT":"0.0000000000000","BSTAR":"0.00013050000000","COUNTRY_CODE":"US","CLASSIFICATION_TYPE":"U","EPOCH":"2021-11-26T19:54:35.381088","OBJECT_NAME":"STARLINK-2575","TLE_LINE2":"2 48396  53.0558 162.0423 0001916  89.1750 270.9458 15.06400032 32813","OBJECT_ID":"2021-038AV","REV_AT_EPOCH":"3281","DECAY_DATE":null,"MEAN_MOTION":"15.06400032","TLE_LINE1":"1 48396U 21038AV  21330.82957617  .00001663  00000-0  13050-3 0  9996","SITE":"AFETR","RA_OF_ASC_NODE":"162.0423","FILE":"3224952","LAUNCH_DATE":"2021-05-04","RCS_SIZE":"LARGE","MEAN_ELEMENT_THEORY":"SGP4","TIME_SYSTEM":"UTC","APOAPSIS":"548.540","ELEMENT_SET_NO":"999","REF_FRAME":"TEME","ARG_OF_PERICENTER":"89.1750","PERIAPSIS":"545.887","PERIOD":"95.592","NORAD_CAT_ID":"48396","INCLINATION":"53.0558","SEMIMAJOR_AXIS":"6925.348","EPHEMERIS_TYPE":"0","ECCENTRICITY":"0.00019160","CENTER_NAME":"EARTH","MEAN_MOTION_DOT":"0.00001663","OBJECT_TYPE":"PAYLOAD"},{"ELEMENT_SET_NO":"999","TIME_SYSTEM":"UTC","APOAPSIS":"548.501","ARG_OF_PERICENTER":"84.5427","REF_FRAME":"TEME","PERIAPSIS":"545.941","PERIOD":"95.592","INCLINATION":"53.0554","NORAD_CAT_ID":"48397","SEMIMAJOR_AXIS":"6925.356","ECCENTRICITY":"0.00018480","EPHEMERIS_TYPE":"0","CENTER_NAME":"EARTH","OBJECT_TYPE":"PAYLOAD","MEAN_MOTION_DOT":"0.00000850","GP_ID":"190559767","MEAN_ANOMALY":"275.5773","MEAN_MOTION_DDOT":"0.0000000000000","COUNTRY_CODE":"US","BSTAR":"0.00007599000000","CLASSIFICATION_TYPE":"U","EPOCH":"2021-11-26T19:49:16.190112","TLE_LINE2":"2 48397  53.0554 162.0761 0001848  84.5427 275.5773 15.06397513 32819","OBJECT_NAME":"STARLINK-2590","DECAY_DATE":null,"OBJECT_ID":"2021-038AW","REV_AT_EPOCH":"3281","MEAN_MOTION":"15.06397513","SITE":"AFETR","TLE_LINE1":"1 48397U 21038AW  21330.82588183  .00000850  00000-0  75990-4 0  9994","LAUNCH_DATE":"2021-05-04","FILE":"3224952","RA_OF_ASC_NODE":"162.0761","MEAN_ELEMENT_THEORY":"SGP4","RCS_SIZE":"LARGE"},{"SEMIMAJOR_AXIS":"6925.345","EPHEMERIS_TYPE":"0","ECCENTRICITY":"0.00019170","CENTER_NAME":"EARTH","MEAN_MOTION_DOT":"0.00000731","OBJECT_TYPE":"PAYLOAD","REF_FRAME":"TEME","ARG_OF_PERICENTER":"84.1553","APOAPSIS":"548.538","TIME_SYSTEM":"UTC","ELEMENT_SET_NO":"999","PERIOD":"95.592","PERIAPSIS":"545.882","NORAD_CAT_ID":"48398","INCLINATION":"53.0544","OBJECT_NAME":"STARLINK-2588","TLE_LINE2":"2 48398  53.0544 162.0863 0001917  84.1553 275.9655 15.06401143 32813","MEAN_MOTION":"15.06401143","OBJECT_ID":"2021-038AX","REV_AT_EPOCH":"3281","DECAY_DATE":null,"SITE":"AFETR","TLE_LINE1":"1 48398U 21038AX  21330.82219488  .00000731  00000-0  67952-4 0  9991","RCS_SIZE":"LARGE","MEAN_ELEMENT_THEORY":"SGP4","RA_OF_ASC_NODE":"162.0863","FILE":"3224952","LAUNCH_DATE":"2021-05-04","MEAN_ANOMALY":"275.9655","GP_ID":"190560524","BSTAR":"0.00006795200000","COUNTRY_CODE":"US","MEAN_MOTION_DDOT":"0.0000000000000","CLASSIFICATION_TYPE":"U","EPOCH":"2021-11-26T19:43:57.637632"},{"MEAN_MOTION_DDOT":"0.0000000000000","COUNTRY_CODE":"US","BSTAR":"0.00007779500000","CLASSIFICATION_TYPE":"U","EPOCH":"2021-11-26T21:14:11.406336","GP_ID":"190558771","MEAN_ANOMALY":"278.4285","TLE_LINE1":"1 48399U 21038AY  21330.88485424  .00000877  00000-0  77795-4 0  9990","SITE":"AFETR","FILE":"3224952","LAUNCH_DATE":"2021-05-04","RA_OF_ASC_NODE":"161.8151","MEAN_ELEMENT_THEORY":"SGP4","RCS_SIZE":"LARGE","TLE_LINE2":"2 48399  53.0555 161.8151 0001874  81.6916 278.4285 15.06401929 32819","OBJECT_NAME":"STARLINK-2587","DECAY_DATE":null,"REV_AT_EPOCH":"3281","OBJECT_ID":"2021-038AY","MEAN_MOTION":"15.06401929","PERIOD":"95.592","PERIAPSIS":"545.910","INCLINATION":"53.0555","NORAD_CAT_ID":"48399","ELEMENT_SET_NO":"999","TIME_SYSTEM":"UTC","APOAPSIS":"548.505","ARG_OF_PERICENTER":"81.6916","REF_FRAME":"TEME","CENTER_NAME":"EARTH","OBJECT_TYPE":"PAYLOAD","MEAN_MOTION_DOT":"0.00000877","SEMIMAJOR_AXIS":"6925.343","ECCENTRICITY":"0.00018740","EPHEMERIS_TYPE":"0"},{"TIME_SYSTEM":"UTC","APOAPSIS":"548.485","ELEMENT_SET_NO":"999","REF_FRAME":"TEME","ARG_OF_PERICENTER":"90.3952","NORAD_CAT_ID":"48400","INCLINATION":"53.0551","PERIAPSIS":"545.927","PERIOD":"95.592","EPHEMERIS_TYPE":"0","ECCENTRICITY":"0.00018470","SEMIMAJOR_AXIS":"6925.341","MEAN_MOTION_DOT":"0.00001289","OBJECT_TYPE":"PAYLOAD","CENTER_NAME":"EARTH","GP_ID":"190559522","MEAN_ANOMALY":"269.7249","CLASSIFICATION_TYPE":"U","EPOCH":"2021-11-26T19:33:20.366784","MEAN_MOTION_DDOT":"0.0000000000000","BSTAR":"0.00010543000000","COUNTRY_CODE":"US","OBJECT_ID":"2021-038AZ","REV_AT_EPOCH":"3159","DECAY_DATE":null,"MEAN_MOTION":"15.06402580","OBJECT_NAME":"STARLINK-2576","TLE_LINE2":"2 48400  53.0551 162.1230 0001847  90.3952 269.7249 15.06402580 31598","RA_OF_ASC_NODE":"162.1230","LAUNCH_DATE":"2021-05-04","FILE":"3224952","RCS_SIZE":"LARGE","MEAN_ELEMENT_THEORY":"SGP4","SITE":"AFETR","TLE_LINE1":"1 48400U 21038AZ  21330.81481906  .00001289  00000-0  10543-3 0  9992"},{"SEMIMAJOR_AXIS":"6925.361","EPHEMERIS_TYPE":"0","ECCENTRICITY":"0.00018930","CENTER_NAME":"EARTH","MEAN_MOTION_DOT":"0.00000761","OBJECT_TYPE":"PAYLOAD","APOAPSIS":"548.537","TIME_SYSTEM":"UTC","ELEMENT_SET_NO":"999","REF_FRAME":"TEME","ARG_OF_PERICENTER":"82.0295","PERIAPSIS":"545.915","PERIOD":"95.592","NORAD_CAT_ID":"48401","INCLINATION":"53.0544","OBJECT_NAME":"STARLINK-2571","TLE_LINE2":"2 48401  53.0544 162.8561 0001893  82.0295 278.0909 15.06395941 31569","REV_AT_EPOCH":"3156","OBJECT_ID":"2021-038BA","DECAY_DATE":null,"MEAN_MOTION":"15.06395941","TLE_LINE1":"1 48401U 21038BA  21330.65169228  .00000761  00000-0  69979-4 0  9997","SITE":"AFETR","RA_OF_ASC_NODE":"162.8561","LAUNCH_DATE":"2021-05-04","FILE":"3224952","RCS_SIZE":"LARGE","MEAN_ELEMENT_THEORY":"SGP4","GP_ID":"190560267","MEAN_ANOMALY":"278.0909","MEAN_MOTION_DDOT":"0.0000000000000","BSTAR":"0.00006997900000","COUNTRY_CODE":"US","CLASSIFICATION_TYPE":"U","EPOCH":"2021-11-26T15:38:26.212992"},{"ELEMENT_SET_NO":"999","TIME_SYSTEM":"UTC","APOAPSIS":"548.579","ARG_OF_PERICENTER":"83.7602","REF_FRAME":"TEME","INCLINATION":"53.0555","NORAD_CAT_ID":"48402","PERIOD":"95.592","PERIAPSIS":"545.839","ECCENTRICITY":"0.00019780","EPHEMERIS_TYPE":"0","SEMIMAJOR_AXIS":"6925.344","OBJECT_TYPE":"PAYLOAD","MEAN_MOTION_DOT":"0.00000831","CENTER_NAME":"EARTH","MEAN_ANOMALY":"276.3612","GP_ID":"190560798","CLASSIFICATION_TYPE":"U","EPOCH":"2021-11-26T19:28:01.364160","MEAN_MOTION_DDOT":"0.0000000000000","COUNTRY_CODE":"US","BSTAR":"0.00007468700000","DECAY_DATE":null,"OBJECT_ID":"2021-038BB","REV_AT_EPOCH":"3159","MEAN_MOTION":"15.06401443","TLE_LINE2":"2 48402  53.0555 162.1443 0001978  83.7602 276.3612 15.06401443 31598","OBJECT_NAME":"STARLINK-2560","LAUNCH_DATE":"2021-05-04","FILE":"3224952","RA_OF_ASC_NODE":"162.1443","MEAN_ELEMENT_THEORY":"SGP4","RCS_SIZE":"LARGE","TLE_LINE1":"1 48402U 21038BB  21330.81112690  .00000831  00000-0  74687-4 0  9997","SITE":"AFETR"},{"TLE_LINE1":"1 48403U 21038BC  21330.87380389  .00000630  00000-0  61199-4 0  9997","SITE":"AFETR","RA_OF_ASC_NODE":"161.8496","LAUNCH_DATE":"2021-05-04","FILE":"3224952","RCS_SIZE":"LARGE","MEAN_ELEMENT_THEORY":"SGP4","OBJECT_NAME":"STARLINK-2561","TLE_LINE2":"2 48403  53.0539 161.8496 0001793  83.7315 276.3878 15.06390766 31602","OBJECT_ID":"2021-038BC","REV_AT_EPOCH":"3160","DECAY_DATE":null,"MEAN_MOTION":"15.06390766","MEAN_MOTION_DDOT":"0.0000000000000","BSTAR":"0.00006119900000","COUNTRY_CODE":"US","EPOCH":"2021-11-26T20:58:16.656096","CLASSIFICATION_TYPE":"U","MEAN_ANOMALY":"276.3878","GP_ID":"190559271","CENTER_NAME":"EARTH","MEAN_MOTION_DOT":"0.00000630","OBJECT_TYPE":"PAYLOAD","SEMIMAJOR_AXIS":"6925.377","EPHEMERIS_TYPE":"0","ECCENTRICITY":"0.00017930","PERIOD":"95.593","PERIAPSIS":"546.000","NORAD_CAT_ID":"48403","INCLINATION":"53.0539","APOAPSIS":"548.484","TIME_SYSTEM":"UTC","ELEMENT_SET_NO":"999","REF_FRAME":"TEME","ARG_OF_PERICENTER":"83.7315"},{"ARG_OF_PERICENTER":"87.9628","REF_FRAME":"TEME","ELEMENT_SET_NO":"999","APOAPSIS":"548.524","TIME_SYSTEM":"UTC","PERIAPSIS":"545.937","PERIOD":"95.592","INCLINATION":"53.0552","NORAD_CAT_ID":"48404","SEMIMAJOR_AXIS":"6925.365","ECCENTRICITY":"0.00018680","EPHEMERIS_TYPE":"0","CENTER_NAME":"EARTH","OBJECT_TYPE":"PAYLOAD","MEAN_MOTION_DOT":"-0.00001249","GP_ID":"190560022","MEAN_ANOMALY":"272.1575","COUNTRY_CODE":"US","BSTAR":"-0.00006497300000","MEAN_MOTION_DDOT":"0.0000000000000","CLASSIFICATION_TYPE":"U","EPOCH":"2021-11-26T22:28:29.645472","TLE_LINE2":"2 48404  53.0552 161.5821 0001868  87.9628 272.1575 15.06394521 31615","OBJECT_NAME":"STARLINK-2593","MEAN_MOTION":"15.06394521","DECAY_DATE":null,"REV_AT_EPOCH":"3161","OBJECT_ID":"2021-038BD","SITE":"AFETR","TLE_LINE1":"1 48404U 21038BD  21330.93645423 -.00001249  00000-0 -64973-4 0  9990","MEAN_ELEMENT_THEORY":"SGP4","RCS_SIZE":"LARGE","LAUNCH_DATE":"2021-05-04","FILE":"3224952","RA_OF_ASC_NODE":"161.5821"},{"MEAN_MOTION_DOT":"0.00000818","OBJECT_TYPE":"PAYLOAD","CENTER_NAME":"EARTH","EPHEMERIS_TYPE":"0","ECCENTRICITY":"0.00019630","SEMIMAJOR_AXIS":"6925.385","NORAD_CAT_ID":"48405","INCLINATION":"53.0555","PERIOD":"95.593","PERIAPSIS":"545.891","REF_FRAME":"TEME","ARG_OF_PERICENTER":"88.1480","APOAPSIS":"548.609","TIME_SYSTEM":"UTC","ELEMENT_SET_NO":"999","RCS_SIZE":"LARGE","MEAN_ELEMENT_THEORY":"SGP4","RA_OF_ASC_NODE":"162.1925","FILE":"3224952","LAUNCH_DATE":"2021-05-04","TLE_LINE1":"1 48405U 21038BE  21330.80008271  .00000818  00000-0  73861-4 0  9996","SITE":"AFETR","MEAN_MOTION":"15.06388104","OBJECT_ID":"2021-038BE","REV_AT_EPOCH":"3159","DECAY_DATE":null,"OBJECT_NAME":"STARLINK-2570","TLE_LINE2":"2 48405  53.0555 162.1925 0001963  88.1480 271.9734 15.06388104 31597","CLASSIFICATION_TYPE":"U","EPOCH":"2021-11-26T19:12:07.146144","BSTAR":"0.00007386100000","COUNTRY_CODE":"US","MEAN_MOTION_DDOT":"0.0000000000000","MEAN_ANOMALY":"271.9734","GP_ID":"190559768"}];
